0 FENGYUN 1C DEB
1 30446U 99025AFH 13281.51561468  .00001785  00000-0  86373-3 0  1727
2 30446 098.9190 283.1246 0052028 078.0659 046.9793 14.19078964347600
0 FENGYUN 1C DEB
1 30446U 99025AFH 13283.68741105  .00001992  00000-0  96138-3 0  1736
2 30446 098.9188 285.3102 0051944 071.9908 341.9066 14.19093528347915
0 FENGYUN 1C DEB
1 30446U 99025AFH 13285.94426773  .00002184  00000-0  10514-2 0  1746
2 30446 098.9186 287.5807 0051940 065.5852 351.5697 14.19101065348231
0 FENGYUN 1C DEB
1 30446U 99025AFH 13287.98834326  .00003677  00000-0  17552-2 0  1757
2 30446 098.9180 289.6379 0051859 059.8515 354.1925 14.19110337348520
0 FENGYUN 1C DEB
1 30446U 99025AFH 13290.47648563  .00002923  00000-0  13998-2 0  1765
2 30446 098.9179 292.1414 0051764 052.8542 105.5560 14.19126092348871
0 FENGYUN 1C DEB
1 30446U 99025AFH 13292.51575274  .00002861  00000-0  13700-2 0  1773
2 30446 098.9182 294.1932 0051665 047.1192 083.8170 14.19135387349165
0 FENGYUN 1C DEB
1 30446U 99025AFH 13294.84037159  .00003565  00000-0  17015-2 0  1782
2 30446 098.9188 296.5323 0051582 040.5208 080.0415 14.19147592349492
